{"type": "FeatureCollection", "features": [ {"type": "Feature", "properties": {"norad_id": 33153, "name": "INTELSAT 25 (IS-25)", "group": "intelsat", "lat": -1.7067612971962682, "lon": 32.088783910837364, "alt_km": 35799.29426102795, "timestamp": "2025-12-14T22:38:40.426986+00:00", "meta": {"OBJECT_NAME": "INTELSAT 25 (IS-25)", "OBJECT_ID": "2008-034A", "EPOCH": "2025-12-14T06:25:15.175200", "MEAN_MOTION": 1.00271631, "ECCENTRICITY": 0.0004922, "INCLINATION": 2.2317, "RA_OF_ASC_NODE": 82.634, "ARG_OF_PERICENTER": 181.2545, "MEAN_ANOMALY": 244.121, "EPHEMERIS_TYPE": 0, "CLASSIFICATION_TYPE": "U", "NORAD_CAT_ID": 33153, "ELEMENT_SET_NO": 999, "REV_AT_EPOCH": 6384, "BSTAR": 0, "MEAN_MOTION_DOT": -2.07e-06, "MEAN_MOTION_DDOT": 0}, "tle": {"line1": "1 33153U 08034A   25348.26753675 -.00000207  00000+0  00000+0 0  9991", "line2": "2 33153   2.2317  82.6340 0004922 181.2545 244.1210  1.00271631 63844"}}, "geometry": {"type": "Point", "coordinates": [32.088783910837364, -1.7067612971962682]}}, {"type": "Feature", "properties": {"norad_id": 33376, "name": "GALAXY 19 (G-19)", "group": "intelsat", "lat": -0.01849020566175321, "lon": -33.46947936899303, "alt_km": 35781.19639110139, "timestamp": "2025-12-14T22:38:40.426998+00:00", "meta": {"OBJECT_NAME": "GALAXY 19 (G-19)", "OBJECT_ID": "2008-045A", "EPOCH": "2025-12-14T06:06:31.968288", "MEAN_MOTION": 1.00269863, "ECCENTRICITY": 0.00025496, "INCLINATION": 0.0202, "RA_OF_ASC_NODE": 6.8537, "ARG_OF_PERICENTER": 260.0603, "MEAN_ANOMALY": 170.8918, "EPHEMERIS_TYPE": 0, "CLASSIFICATION_TYPE": "U", "NORAD_CAT_ID": 33376, "ELEMENT_SET_NO": 999, "REV_AT_EPOCH": 6304, "BSTAR": 0, "MEAN_MOTION_DOT": 0, "MEAN_MOTION_DDOT": 0}, "tle": {"line1": "1 33376U 08045A   25348.25453667  .00000000  00000+0  00000+0 0  9997", "line2": "2 33376   0.0202   6.8537 0002549 260.0603 170.8918  1.00269863 63046"}}, "geometry": {"type": "Point", "coordinates": [-33.46947936899303, -0.01849020566175321]}}, {"type": "Feature", "properties": {"norad_id": 35493, "name": "FM-5", "group": "intelsat", "lat": 0.017528095446940867, "lon": -22.634709021639594, "alt_km": 35789.54725052488, "timestamp": "2025-12-14T22:38:40.427010+00:00", "meta": {"OBJECT_NAME": "FM-5", "OBJECT_ID": "2009-034A", "EPOCH": "2025-12-14T04:39:14.730336", "MEAN_MOTION": 1.00270096, "ECCENTRICITY": 7.033e-05, "INCLINATION": 0.02, "RA_OF_ASC_NODE": 289.1268, "ARG_OF_PERICENTER": 224.1375, "MEAN_ANOMALY": 273.5206, "EPHEMERIS_TYPE": 0, "CLASSIFICATION_TYPE": "U", "NORAD_CAT_ID": 35493, "ELEMENT_SET_NO": 999, "REV_AT_EPOCH": 4478, "BSTAR": 0, "MEAN_MOTION_DOT": -1.83e-06, "MEAN_MOTION_DDOT": 0}, "tle": {"line1": "1 35493U 09034A   25348.19392049 -.00000183  00000+0  00000+0 0  9990", "line2": "2 35493   0.0200 289.1268 0000703 224.1375 273.5206  1.00270096 44781"}}, "geometry": {"type": "Point", "coordinates": [-22.634709021639594, 0.017528095446940867]}}, {"type": "Feature", "properties": {"norad_id": 36097, "name": "INTELSAT 14 (IS-14)", "group": "intelsat", "lat": 0.002440451420724455, "lon": 18.546029349016, "alt_km": 35789.28751090999, "timestamp": "2025-12-14T22:38:40.427022+00:00", "meta": {"OBJECT_NAME": "INTELSAT 14 (IS-14)", "OBJECT_ID": "2009-064A", "EPOCH": "2025-12-14T06:21:23.046048", "MEAN_MOTION": 1.00271838, "ECCENTRICITY": 0.00024329, "INCLINATION": 0.0198, "RA_OF_ASC_NODE": 43.4129, "ARG_OF_PERICENTER": 227.4231, "MEAN_ANOMALY": 222.7023, "EPHEMERIS_TYPE": 0, "CLASSIFICATION_TYPE": "U", "NORAD_CAT_ID": 36097, "ELEMENT_SET_NO": 999, "REV_AT_EPOCH": 5875, "BSTAR": 0, "MEAN_MOTION_DOT": -2.56e-06, "MEAN_MOTION_DDOT": 0}, "tle": {"line1": "1 36097U 09064A   25348.26485007 -.00000256  00000+0  00000+0 0  9990", "line2": "2 36097   0.0198  43.4129 0002432 227.4231 222.7023  1.00271838 58753"}}, "geometry": {"type": "Point", "coordinates": [18.546029349016, 0.002440451420724455]}}, {"type": "Feature", "properties": {"norad_id": 36106, "name": "INTELSAT 15 (IS-15)", "group": "intelsat", "lat": -0.008004135912961535, "lon": 148.64666915377146, "alt_km": 35791.23705458161, "timestamp": "2025-12-14T22:38:40.427033+00:00", "meta": {"OBJECT_NAME": "INTELSAT 15 (IS-15)", "OBJECT_ID": "2009-067A", "EPOCH": "2025-12-14T06:58:19.507584", "MEAN_MOTION": 1.00272146, "ECCENTRICITY": 0.00022591, "INCLINATION": 0.0155, "RA_OF_ASC_NODE": 302.0775, "ARG_OF_PERICENTER": 329.7584, "MEAN_ANOMALY": 1.1112, "EPHEMERIS_TYPE": 0, "CLASSIFICATION_TYPE": "U", "NORAD_CAT_ID": 36106, "ELEMENT_SET_NO": 999, "REV_AT_EPOCH": 3937, "BSTAR": 0, "MEAN_MOTION_DOT": -1.67e-06, "MEAN_MOTION_DDOT": 0}, "tle": {"line1": "1 36106U 09067A   25348.29050356 -.00000167  00000+0  00000+0 0  9993", "line2": "2 36106   0.0155 302.0775 0002259 329.7584   1.1112  1.00272146 39370"}}, "geometry": {"type": "Point", "coordinates": [148.64666915377146, -0.008004135912961535]}}, {"type": "Feature", "properties": {"norad_id": 36131, "name": "DIRECTV 12", "group": "intelsat", "lat": -0.0019268511622115491, "lon": -39.22166092281585, "alt_km": 35784.66781288922, "timestamp": "2025-12-14T22:38:40.427045+00:00", "meta": {"OBJECT_NAME": "DIRECTV 12", "OBJECT_ID": "2009-075A", "EPOCH": "2025-12-14T07:45:38.704032", "MEAN_MOTION": 1.00268076, "ECCENTRICITY": 8.414e-05, "INCLINATION": 0.0283, "RA_OF_ASC_NODE": 147.4937, "ARG_OF_PERICENTER": 218.9311, "MEAN_ANOMALY": 90.5104, "EPHEMERIS_TYPE": 0, "CLASSIFICATION_TYPE": "U", "NORAD_CAT_ID": 36131, "ELEMENT_SET_NO": 999, "REV_AT_EPOCH": 4470, "BSTAR": 0, "MEAN_MOTION_DOT": -8.5e-07, "MEAN_MOTION_DDOT": 0}, "tle": {"line1": "1 36131U 09075A   25348.32336463 -.00000085  00000+0  00000+0 0  9999", "line2": "2 36131   0.0283 147.4937 0000841 218.9311  90.5104  1.00268076 44706"}}, "geometry": {"type": "Point", "coordinates": [-39.22166092281585, -0.0019268511622115491]}}, {"type": "Feature", "properties": {"norad_id": 36397, "name": "INTELSAT 16 (IS-16)", "group": "intelsat", "lat": 0.009454589561932415, "lon": -12.658795206865134, "alt_km": 35784.82168178439, "timestamp": "2025-12-14T22:38:40.427057+00:00", "meta": {"OBJECT_NAME": "INTELSAT 16 (IS-16)", "OBJECT_ID": "2010-006A", "EPOCH": "2025-12-14T06:12:31.394016", "MEAN_MOTION": 1.00271828, "ECCENTRICITY": 0.00019888, "INCLINATION": 0.0087, "RA_OF_ASC_NODE": 325.1292, "ARG_OF_PERICENTER": 301.221, "MEAN_ANOMALY": 193.7661, "EPHEMERIS_TYPE": 0, "CLASSIFICATION_TYPE": "U", "NORAD_CAT_ID": 36397, "ELEMENT_SET_NO": 999, "REV_AT_EPOCH": 5780, "BSTAR": 0, "MEAN_MOTION_DOT": -2.27e-06, "MEAN_MOTION_DDOT": 0}, "tle": {"line1": "1 36397U 10006A   25348.25869669 -.00000227  00000+0  00000+0 0  9998", "line2": "2 36397   0.0087 325.1292 0001988 301.2210 193.7661  1.00271828 57806"}}, "geometry": {"type": "Point", "coordinates": [-12.658795206865134, 0.009454589561932415]}}, {"type": "Feature", "properties": {"norad_id": 37185, "name": "XM-5", "group": "intelsat", "lat": 0.027822188877889373, "lon": -51.68014530109008, "alt_km": 35793.38245717588, "timestamp": "2025-12-14T22:38:40.427073+00:00", "meta": {"OBJECT_NAME": "XM-5", "OBJECT_ID": "2010-053A", "EPOCH": "2025-12-14T06:01:17.469696", "MEAN_MOTION": 1.0026902, "ECCENTRICITY": 0.0001609, "INCLINATION": 0.0629, "RA_OF_ASC_NODE": 272.3981, "ARG_OF_PERICENTER": 230.4692, "MEAN_ANOMALY": 275.4367, "EPHEMERIS_TYPE": 0, "CLASSIFICATION_TYPE": "U", "NORAD_CAT_ID": 37185, "ELEMENT_SET_NO": 999, "REV_AT_EPOCH": 5562, "BSTAR": 0, "MEAN_MOTION_DOT": -5e-08, "MEAN_MOTION_DDOT": 0}, "tle": {"line1": "1 37185U 10053A   25348.25089664 -.00000005  00000+0  00000+0 0  9999", "line2": "2 37185   0.0629 272.3981 0001609 230.4692 275.4367  1.00269020 55629"}}, "geometry": {"type": "Point", "coordinates": [-51.68014530109008, 0.027822188877889373]}}, {"type": "Feature", "properties": {"norad_id": 37238, "name": "INTELSAT 17 (IS-17)", "group": "intelsat", "lat": -3.390204867998281e-05, "lon": 129.50102462678439, "alt_km": 35795.69880857566, "timestamp": "2025-12-14T22:38:40.427086+00:00", "meta": {"OBJECT_NAME": "INTELSAT 17 (IS-17)", "OBJECT_ID": "2010-065B", "EPOCH": "2025-12-14T05:10:22.348416", "MEAN_MOTION": 1.00271798, "ECCENTRICITY": 0.00026243, "INCLINATION": 0.0126, "RA_OF_ASC_NODE": 104.4782, "ARG_OF_PERICENTER": 175.6392, "MEAN_ANOMALY": 306.6155, "EPHEMERIS_TYPE": 0, "CLASSIFICATION_TYPE": "U", "NORAD_CAT_ID": 37238, "ELEMENT_SET_NO": 999, "REV_AT_EPOCH": 5139, "BSTAR": 0, "MEAN_MOTION_DOT": 1.6e-07, "MEAN_MOTION_DDOT": 0}, "tle": {"line1": "1 37238U 10065B   25348.21553644  .00000016  00000+0  00000+0 0  9992", "line2": "2 37238   0.0126 104.4782 0002624 175.6392 306.6155  1.00271798 51396"}}, "geometry": {"type": "Point", "coordinates": [129.50102462678439, -3.390204867998281e-05]}}, {"type": "Feature", "properties": {"norad_id": 37392, "name": "INTELSAT 28 (IS-28)", "group": "intelsat", "lat": -1.046205881880106, "lon": 31.881119667809315, "alt_km": 35794.77037383025, "timestamp": "2025-12-14T22:38:40.427097+00:00", "meta": {"OBJECT_NAME": "INTELSAT 28 (IS-28)", "OBJECT_ID": "2011-016A", "EPOCH": "2025-12-14T06:25:07.686912", "MEAN_MOTION": 1.00272925, "ECCENTRICITY": 0.00037124, "INCLINATION": 1.3286, "RA_OF_ASC_NODE": 85.0389, "ARG_OF_PERICENTER": 182.7746, "MEAN_ANOMALY": 239.978, "EPHEMERIS_TYPE": 0, "CLASSIFICATION_TYPE": "U", "NORAD_CAT_ID": 37392, "ELEMENT_SET_NO": 999, "REV_AT_EPOCH": 5143, "BSTAR": 0, "MEAN_MOTION_DOT": -2.07e-06, "MEAN_MOTION_DDOT": 0}, "tle": {"line1": "1 37392U 11016A   25348.26745008 -.00000207  00000+0  00000+0 0  9995", "line2": "2 37392   1.3286  85.0389 0003712 182.7746 239.9780  1.00272925 51436"}}, "geometry": {"type": "Point", "coordinates": [31.881119667809315, -1.046205881880106]}}]}